{
    "links": {
        "self": "http://www.neowsapp.com/rest/v1/neo/3831740?api_key=iIulBulltgU6a56xZRHN4H3l9WmuAYTsLGpBGhQ2"
    },
    "id": "3831740",
    "neo_reference_id": "3831740",
    "name": "(2018 TG5)",
    "designation": "2018 TG5",
    "nasa_jpl_url": "http://ssd.jpl.nasa.gov/sbdb.cgi?sstr=3831740",
    "absolute_magnitude_h": 20.6,
    "estimated_diameter": {
        "kilometers": {
            "estimated_diameter_min": 0.2016299194,
            "estimated_diameter_max": 0.4508582062
        },
        "meters": {
            "estimated_diameter_min": 201.6299194428,
            "estimated_diameter_max": 450.8582061718
        },
        "miles": {
            "estimated_diameter_min": 0.1252869847,
            "estimated_diameter_max": 0.2801502144
        },
        "feet": {
            "estimated_diameter_min": 661.5155049046,
            "estimated_diameter_max": 1479.1936371367
        }
    },
    "is_potentially_hazardous_asteroid": false,
    "close_approach_data": [
        {
            "close_approach_date": "2018-06-25",
            "close_approach_date_full": "2018-Jun-25 22:48",
            "epoch_date_close_approach": 1529966880000,
            "relative_velocity": {
                "kilometers_per_second": "15.0027637359",
                "kilometers_per_hour": "54009.9494492695",
                "miles_per_hour": "33559.6822008531"
            },
            "miss_distance": {
                "astronomical": "0.3787337488",
                "lunar": "147.3274282832",
                "kilometers": "56657762.117595056",
                "miles": "35205500.8791055328"
            },
            "orbiting_body": "Earth"
        },
        {
            "close_approach_date": "2021-07-24",
            "close_approach_date_full": "2021-Jul-24 19:47",
            "epoch_date_close_approach": 1627156020000,
            "relative_velocity": {
                "kilometers_per_second": "5.8820942878",
                "kilometers_per_hour": "21175.5394360815",
                "miles_per_hour": "13157.6567123808"
            },
            "miss_distance": {
                "astronomical": "0.1317717706",
                "lunar": "51.2592187634",
                "kilometers": "19712776.207888622",
                "miles": "12248951.1441701036"
            },
            "orbiting_body": "Earth"
        },
        {
            "close_approach_date": "2024-09-05",
            "close_approach_date_full": "2024-Sep-05 05:39",
            "epoch_date_close_approach": 1725514740000,
            "relative_velocity": {
                "kilometers_per_second": "11.628764261",
                "kilometers_per_hour": "41863.5513394938",
                "miles_per_hour": "26012.3827753649"
            },
            "miss_distance": {
                "astronomical": "0.280130604",
                "lunar": "108.970804956",
                "kilometers": "41906941.68021348",
                "miles": "26039766.080086824"
            },
            "orbiting_body": "Earth"
        }
    ],
    "orbital_data": {
        "orbit_id": "9",
        "orbit_determination_date": "2019-02-11 07:08:20",
        "first_observation_date": "2018-10-09",
        "last_observation_date": "2018-11-17",
        "data_arc_in_days": 39,
        "observations_used": 49,
        "orbit_uncertainty": "6",
        "minimum_orbit_intersection": ".125617",
        "jupiter_tisserand_invariant": "3.586",
        "epoch_osculation": "2459000.5",
        "eccentricity": ".4783063052684622",
        "semi_major_axis": "2.103316059045403",
        "inclination": "5.126840056690468",
        "ascending_node_longitude": "47.00461329627007",
        "orbital_period": "1114.179679414696",
        "perihelion_distance": "1.097286726031574",
        "perihelion_argument": "266.7251669209649",
        "aphelion_distance": "3.109345392059232",
        "perihelion_time": "2459429.782343813445",
        "mean_anomaly": "221.2955821865064",
        "mean_motion": ".3231076698411123",
        "equinox": "J2000",
        "orbit_class": {
            "orbit_class_type": "AMO",
            "orbit_class_description": "Near-Earth asteroid orbits similar to that of 1221 Amor",
            "orbit_class_range": "1.017 AU < q (perihelion) < 1.3 AU"
        }
    },
    "is_sentry_object": false
}